{
  "norad_id": 63831,
  "name": "STARLINK-33940",
  "history": [
    {
      "epoch": "2026-03-28T15:34:23.513664Z",
      "apogee_km": 483.877383479291,
      "perigee_km": 482.0353171366014,
      "latitude_deg": 1.1351929595773042e-05,
      "longitude_deg": 5.85823415075186,
      "height_km": 482.72826132620725,
      "semi_major_axis_km": 6861.093350307946,
      "eccentricity": 0.00013424,
      "inclination_deg": 43.0034,
      "raan_deg": 65.5225,
      "arg_perigee_deg": 270.3184,
      "mean_anomaly_deg": 89.7514,
      "mean_motion_rev_day": 15.27610974
    },
    {
      "epoch": "2026-03-29T05:41:47.857344Z",
      "apogee_km": 483.40571181960604,
      "perigee_km": 482.5220020292345,
      "latitude_deg": 5.311670744999169e-05,
      "longitude_deg": 150.10271806376053,
      "height_km": 482.85127622542586,
      "semi_major_axis_km": 6861.1008569244195,
      "eccentricity": 6.44e-05,
      "inclination_deg": 43.0008,
      "raan_deg": 62.1984,
      "arg_perigee_deg": 255.4054,
      "mean_anomaly_deg": 104.6727,
      "mean_motion_rev_day": 15.27608467
    },
    {
      "epoch": "2026-03-29T22:57:31.020192Z",
      "apogee_km": 483.22280672847955,
      "perigee_km": 482.8029043573197,
      "latitude_deg": 2.4478189185864296e-05,
      "longitude_deg": -113.59858203268638,
      "height_km": 482.80846319553785,
      "semi_major_axis_km": 6861.149855542899,
      "eccentricity": 3.06e-05,
      "inclination_deg": 42.9962,
      "raan_deg": 58.1359,
      "arg_perigee_deg": 264.4444,
      "mean_anomaly_deg": 95.6373,
      "mean_motion_rev_day": 15.27592103
    },
    {
      "epoch": "2026-03-29T22:57:31.021056Z",
      "apogee_km": 483.2231467915599,
      "perigee_km": 482.8025583055978,
      "latitude_deg": 2.8401870034718828e-05,
      "longitude_deg": -113.59858145762138,
      "height_km": 482.8084934074414,
      "semi_major_axis_km": 6861.149852548579,
      "eccentricity": 3.065e-05,
      "inclination_deg": 42.9962,
      "raan_deg": 58.1359,
      "arg_perigee_deg": 264.4444,
      "mean_anomaly_deg": 95.6373,
      "mean_motion_rev_day": 15.27592104
    },
    {
      "epoch": "2026-03-30T14:39:05.014944Z",
      "apogee_km": 483.75273419250425,
      "perigee_km": 482.18263899602425,
      "latitude_deg": 3.376451676007779e-05,
      "longitude_deg": 6.674904367067987,
      "height_km": 482.55225530012416,
      "semi_major_axis_km": 6861.1046865942635,
      "eccentricity": 0.00011442,
      "inclination_deg": 43.0038,
      "raan_deg": 54.4455,
      "arg_perigee_deg": 284.1814,
      "mean_anomaly_deg": 75.8911,
      "mean_motion_rev_day": 15.27607188
    },
    {
      "epoch": "2026-03-30T22:29:52.338048Z",
      "apogee_km": 483.7234699889086,
      "perigee_km": 482.2211614931339,
      "latitude_deg": 1.4479406412648413e-05,
      "longitude_deg": -113.1917388454416,
      "height_km": 482.42338008839494,
      "semi_major_axis_km": 6861.1093157410205,
      "eccentricity": 0.00010948,
      "inclination_deg": 43.0025,
      "raan_deg": 52.5983,
      "arg_perigee_deg": 64.4824,
      "mean_anomaly_deg": 295.6141,
      "mean_motion_rev_day": 15.27605642
    },
    {
      "epoch": "2026-03-31T14:11:26.515104Z",
      "apogee_km": 483.5200569033459,
      "perigee_km": 482.54851504925136,
      "latitude_deg": 3.44864144840807e-06,
      "longitude_deg": 7.077764392051079,
      "height_km": 482.61955747078906,
      "semi_major_axis_km": 6861.171285976298,
      "eccentricity": 7.08e-05,
      "inclination_deg": 43.0001,
      "raan_deg": 48.9047,
      "arg_perigee_deg": 293.1286,
      "mean_anomaly_deg": 66.9491,
      "mean_motion_rev_day": 15.27584946
    },
    {
      "epoch": "2026-04-01T13:43:47.675712Z",
      "apogee_km": 483.37150669445964,
      "perigee_km": 482.7128334941308,
      "latitude_deg": 5.4631332750149645e-05,
      "longitude_deg": 7.483329998540588,
      "height_km": 482.7781053029009,
      "semi_major_axis_km": 6861.179170094295,
      "eccentricity": 4.8e-05,
      "inclination_deg": 42.9999,
      "raan_deg": 43.3651,
      "arg_perigee_deg": 83.2065,
      "mean_anomaly_deg": 276.8842,
      "mean_motion_rev_day": 15.27582313
    },
    {
      "epoch": "2026-04-02T21:06:54.302688Z",
      "apogee_km": 483.98773317682117,
      "perigee_km": 481.9431246530048,
      "latitude_deg": -4.2726502108524033e-05,
      "longitude_deg": -111.96652838242497,
      "height_km": 482.92243455851775,
      "semi_major_axis_km": 6861.102428914913,
      "eccentricity": 0.000149,
      "inclination_deg": 43.0038,
      "raan_deg": 35.9819,
      "arg_perigee_deg": 259.8675,
      "mean_anomaly_deg": 100.2008,
      "mean_motion_rev_day": 15.27607942
    },
    {
      "epoch": "2026-04-02T21:06:54.303552Z",
      "apogee_km": 483.9875959547735,
      "perigee_km": 481.9432618750534,
      "latitude_deg": 2.433582652786366e-05,
      "longitude_deg": -111.96646048362777,
      "height_km": 482.92240327836276,
      "semi_major_axis_km": 6861.102428914913,
      "eccentricity": 0.00014898,
      "inclination_deg": 43.0038,
      "raan_deg": 35.9819,
      "arg_perigee_deg": 259.8675,
      "mean_anomaly_deg": 100.2009,
      "mean_motion_rev_day": 15.27607942
    },
    {
      "epoch": "2026-04-03T20:39:15.386400Z",
      "apogee_km": 484.1220143099272,
      "perigee_km": 481.95113899027456,
      "latitude_deg": -6.3923147111491255e-06,
      "longitude_deg": -111.56105859916016,
      "height_km": 483.4258677818927,
      "semi_major_axis_km": 6861.173576650101,
      "eccentricity": 0.0001582,
      "inclination_deg": 43.0034,
      "raan_deg": 30.4419,
      "arg_perigee_deg": 235.6551,
      "mean_anomaly_deg": 124.4151,
      "mean_motion_rev_day": 15.27584181
    },
    {
      "epoch": "2026-04-04T20:11:37.117248Z",
      "apogee_km": 484.00702810725306,
      "perigee_km": 482.29033442979926,
      "latitude_deg": -1.8484616199636358e-05,
      "longitude_deg": -111.15524506593468,
      "height_km": 482.9308567397715,
      "semi_major_axis_km": 6861.285681268526,
      "eccentricity": 0.0001251,
      "inclination_deg": 43.0023,
      "raan_deg": 24.905,
      "arg_perigee_deg": 269.6437,
      "mean_anomaly_deg": 90.4271,
      "mean_motion_rev_day": 15.27546743
    },
    {
      "epoch": "2026-04-05T11:53:10.568544Z",
      "apogee_km": 483.3686904234819,
      "perigee_km": 482.54261486810265,
      "latitude_deg": -7.242685083312461e-06,
      "longitude_deg": 9.117612260741328,
      "height_km": 482.5330943903519,
      "semi_major_axis_km": 6861.0926526457915,
      "eccentricity": 6.02e-05,
      "inclination_deg": 43.0013,
      "raan_deg": 21.2117,
      "arg_perigee_deg": 298.7484,
      "mean_anomaly_deg": 61.3307,
      "mean_motion_rev_day": 15.27611207
    },
    {
      "epoch": "2026-04-05T19:43:58.087776Z",
      "apogee_km": 484.3960216379601,
      "perigee_km": 481.91511547102255,
      "latitude_deg": -4.223862538340336e-05,
      "longitude_deg": -110.74926810748772,
      "height_km": 483.1474889584605,
      "semi_major_axis_km": 6861.2925685544915,
      "eccentricity": 0.00018079,
      "inclination_deg": 43.0023,
      "raan_deg": 19.3651,
      "arg_perigee_deg": 260.0339,
      "mean_anomaly_deg": 100.0308,
      "mean_motion_rev_day": 15.27544443
    },
    {
      "epoch": "2026-04-07T01:32:56.530752Z",
      "apogee_km": 483.4611382717385,
      "perigee_km": 482.2975099031728,
      "latitude_deg": 4.085628453885855e-05,
      "longitude_deg": 153.7668958937947,
      "height_km": 482.97434715847027,
      "semi_major_axis_km": 6861.016324087455,
      "eccentricity": 8.48e-05,
      "inclination_deg": 42.9975,
      "raan_deg": 12.3492,
      "arg_perigee_deg": 236.7199,
      "mean_anomaly_deg": 123.3572,
      "mean_motion_rev_day": 15.27636699
    },
    {
      "epoch": "2026-04-08T10:30:13.038624Z",
      "apogee_km": 483.80566447921046,
      "perigee_km": 482.2772683640296,
      "latitude_deg": 3.903437392870983e-05,
      "longitude_deg": 10.341910313602629,
      "height_km": 482.7539297250649,
      "semi_major_axis_km": 6861.178466421619,
      "eccentricity": 0.00011138,
      "inclination_deg": 43.0018,
      "raan_deg": 4.5964,
      "arg_perigee_deg": 274.8189,
      "mean_anomaly_deg": 85.2536,
      "mean_motion_rev_day": 15.27582548
    },
    {
      "epoch": "2026-04-09T02:11:46.681728Z",
      "apogee_km": 483.86405244859634,
      "perigee_km": 482.15686173832364,
      "latitude_deg": -5.750533990841038e-06,
      "longitude_deg": 130.61550554201403,
      "height_km": 482.80113280344995,
      "semi_major_axis_km": 6861.14745709346,
      "eccentricity": 0.00012441,
      "inclination_deg": 43.0016,
      "raan_deg": 0.9047,
      "arg_perigee_deg": 269.065,
      "mean_anomaly_deg": 91.0059,
      "mean_motion_rev_day": 15.27592904
    },
    {
      "epoch": "2026-04-10T09:34:54.145056Z",
      "apogee_km": 483.7468995891286,
      "perigee_km": 482.2552881675201,
      "latitude_deg": -3.3261596308471946e-05,
      "longitude_deg": 11.157822568497057,
      "height_km": 482.7177502869355,
      "semi_major_axis_km": 6861.138093878324,
      "eccentricity": 0.0001087,
      "inclination_deg": 43.0032,
      "raan_deg": 353.5171,
      "arg_perigee_deg": 274.6255,
      "mean_anomaly_deg": 85.4472,
      "mean_motion_rev_day": 15.27596031
    },
    {
      "epoch": "2026-04-11T16:58:02.345376Z",
      "apogee_km": 483.5183674515429,
      "perigee_km": 482.52624381594796,
      "latitude_deg": 1.3424623437859123e-05,
      "longitude_deg": -108.30055943238871,
      "height_km": 482.8102519975076,
      "semi_major_axis_km": 6861.159305633745,
      "eccentricity": 7.23e-05,
      "inclination_deg": 43.0019,
      "raan_deg": 346.1318,
      "arg_perigee_deg": 268.6567,
      "mean_anomaly_deg": 91.4202,
      "mean_motion_rev_day": 15.27588947
    }
  ]
}